[{"OBJECT_NAME":"CHUTIAN-2 B","OBJECT_ID":"2025-256B","EPOCH":"2026-03-09T20:41:11.762016","MEAN_MOTION":14.50086658,"ECCENTRICITY":0.00126455,"INCLINATION":98.2627,"RA_OF_ASC_NODE":137.0927,"ARG_OF_PERICENTER":279.5668,"MEAN_ANOMALY":80.4098,"EPHEMERIS_TYPE":0,"CLASSIFICATION_TYPE":"U","NORAD_CAT_ID":66410,"ELEMENT_SET_NO":999,"REV_AT_EPOCH":1750,"BSTAR":0.00019761492,"MEAN_MOTION_DOT":7.23e-6,"MEAN_MOTION_DDOT":0},{"OBJECT_NAME":"NOAA 16 DEB","OBJECT_ID":"2000-055L","EPOCH":"2026-03-09T13:52:40.299744","MEAN_MOTION":14.53425609,"ECCENTRICITY":0.00249293,"INCLINATION":99.0021,"RA_OF_ASC_NODE":284.5287,"ARG_OF_PERICENTER":47.9876,"MEAN_ANOMALY":312.3435,"EPHEMERIS_TYPE":0,"CLASSIFICATION_TYPE":"U","NORAD_CAT_ID":41053,"ELEMENT_SET_NO":999,"REV_AT_EPOCH":53589,"BSTAR":0.0020716608,"MEAN_MOTION_DOT":8.619e-5,"MEAN_MOTION_DDOT":0}]
